QIANFAN-41              
1 62242U 24232F   25295.50940729  .00000173  00000+0  25012-3 0  9991
2 62242  89.0031  46.3545 0013001 345.9663  14.1125 13.50979868 92334
QIANFAN-42              
1 62243U 24232G   25295.56233063  .00000887  00000+0  37702-3 0  9995
2 62243  89.0028  43.1899 0013141 247.6067 112.3733 14.24404320 94087
QIANFAN-43              
1 62244U 24232H   25295.57938237  .00000162  00000+0  23231-3 0  9990
2 62244  89.0036  46.4105 0014646 350.6265   9.4611 13.50980846 60959
QIANFAN-44              
1 62245U 24232J   25295.56696832  .00000170  00000+0  24538-3 0  9992
2 62245  89.0035  46.2233 0012800 348.4167  11.6687 13.50982076 92427
QIANFAN-45              
1 62246U 24232K   25295.53413265  .00000171  00000+0  24624-3 0  9994
2 62246  89.0039  46.3713 0013432 347.8190  12.2635 13.50978678 92341
QIANFAN-46              
1 62247U 24232L   25295.55878991  .00000153  00000+0  21909-3 0  9991
2 62247  89.0034  46.4399 0013673 353.5178   6.5794 13.50979230 92308
QIANFAN-47              
1 62248U 24232M   25295.56291081  .00000149  00000+0  21221-3 0  9994
2 62248  89.0031  46.3745 0014061 352.4229   7.6707 13.50980960 92338
QIANFAN-48              
1 62249U 24232N   25295.52596190  .00000170  00000+0  24460-3 0  9992
2 62249  89.0034  46.3781 0016376 354.3212   5.7750 13.50977036 92333
